<?xml version="1.0" encoding="UTF-8"?>
<ndm xmlns:xsi="http://www.w3.org/2001/XMLSchema-instance" xsi:noNamespaceSchemaLocation="https://sanaregistry.org/r/ndmxml_unqualified/ndmxml-2.0.0-master-2.0.xsd">
<omm id="CCSDS_OMM_VERS" version="2.0">
<header><CREATION_DATE/><ORIGINATOR/></header><body><segment><metadata><OBJECT_NAME>KUIPER-00136</OBJECT_NAME><OBJECT_ID>2025-228R</OBJECT_ID><CENTER_NAME>EARTH</CENTER_NAME><REF_FRAME>TEME</REF_FRAME><TIME_SYSTEM>UTC</TIME_SYSTEM><MEAN_ELEMENT_THEORY>SGP4</MEAN_ELEMENT_THEORY></metadata><data><meanElements><EPOCH>2025-11-28T16:00:01.999584</EPOCH><MEAN_MOTION>15.35756285</MEAN_MOTION><ECCENTRICITY>.00058239</ECCENTRICITY><INCLINATION>51.8792</INCLINATION><RA_OF_ASC_NODE>88.3099</RA_OF_ASC_NODE><ARG_OF_PERICENTER>306.8051</ARG_OF_PERICENTER><MEAN_ANOMALY>137.7356</MEAN_ANOMALY></meanElements><tleParameters><EPHEMERIS_TYPE>0</EPHEMERIS_TYPE><CLASSIFICATION_TYPE>U</CLASSIFICATION_TYPE><NORAD_CAT_ID>65962</NORAD_CAT_ID><ELEMENT_SET_NO>999</ELEMENT_SET_NO><REV_AT_EPOCH>312</REV_AT_EPOCH><BSTAR>.90768378E-3</BSTAR><MEAN_MOTION_DOT>.3182E-3</MEAN_MOTION_DOT><MEAN_MOTION_DDOT>0</MEAN_MOTION_DDOT></tleParameters></data></segment></body></omm>
<omm id="CCSDS_OMM_VERS" version="2.0">
<header><CREATION_DATE/><ORIGINATOR/></header><body><segment><metadata><OBJECT_NAME>KUIPER-00137</OBJECT_NAME><OBJECT_ID>2025-228S</OBJECT_ID><CENTER_NAME>EARTH</CENTER_NAME><REF_FRAME>TEME</REF_FRAME><TIME_SYSTEM>UTC</TIME_SYSTEM><MEAN_ELEMENT_THEORY>SGP4</MEAN_ELEMENT_THEORY></metadata><data><meanElements><EPOCH>2025-11-28T14:23:02.107680</EPOCH><MEAN_MOTION>15.35122758</MEAN_MOTION><ECCENTRICITY>.00057672</ECCENTRICITY><INCLINATION>51.8799</INCLINATION><RA_OF_ASC_NODE>88.7832</RA_OF_ASC_NODE><ARG_OF_PERICENTER>325.8345</ARG_OF_PERICENTER><MEAN_ANOMALY>34.2269</MEAN_ANOMALY></meanElements><tleParameters><EPHEMERIS_TYPE>0</EPHEMERIS_TYPE><CLASSIFICATION_TYPE>U</CLASSIFICATION_TYPE><NORAD_CAT_ID>65963</NORAD_CAT_ID><ELEMENT_SET_NO>999</ELEMENT_SET_NO><REV_AT_EPOCH>824</REV_AT_EPOCH><BSTAR>.12110017E-2</BSTAR><MEAN_MOTION_DOT>.41778E-3</MEAN_MOTION_DOT><MEAN_MOTION_DDOT>0</MEAN_MOTION_DDOT></tleParameters></data></segment></body></omm>
<omm id="CCSDS_OMM_VERS" version="2.0">
<header><CREATION_DATE/><ORIGINATOR/></header><body><segment><metadata><OBJECT_NAME>KUIPER-00138</OBJECT_NAME><OBJECT_ID>2025-228T</OBJECT_ID><CENTER_NAME>EARTH</CENTER_NAME><REF_FRAME>TEME</REF_FRAME><TIME_SYSTEM>UTC</TIME_SYSTEM><MEAN_ELEMENT_THEORY>SGP4</MEAN_ELEMENT_THEORY></metadata><data><meanElements><EPOCH>2025-11-28T14:28:38.969184</EPOCH><MEAN_MOTION>15.35150456</MEAN_MOTION><ECCENTRICITY>.00069582</ECCENTRICITY><INCLINATION>51.8783</INCLINATION><RA_OF_ASC_NODE>88.7991</RA_OF_ASC_NODE><ARG_OF_PERICENTER>327.6278</ARG_OF_PERICENTER><MEAN_ANOMALY>32.4280</MEAN_ANOMALY></meanElements><tleParameters><EPHEMERIS_TYPE>0</EPHEMERIS_TYPE><CLASSIFICATION_TYPE>U</CLASSIFICATION_TYPE><NORAD_CAT_ID>65964</NORAD_CAT_ID><ELEMENT_SET_NO>999</ELEMENT_SET_NO><REV_AT_EPOCH>824</REV_AT_EPOCH><BSTAR>.12572041E-2</BSTAR><MEAN_MOTION_DOT>.43444E-3</MEAN_MOTION_DOT><MEAN_MOTION_DDOT>0</MEAN_MOTION_DDOT></tleParameters></data></segment></body></omm>
<omm id="CCSDS_OMM_VERS" version="2.0">
<header><CREATION_DATE/><ORIGINATOR/></header><body><segment><metadata><OBJECT_NAME>KUIPER-00140</OBJECT_NAME><OBJECT_ID>2025-228U</OBJECT_ID><CENTER_NAME>EARTH</CENTER_NAME><REF_FRAME>TEME</REF_FRAME><TIME_SYSTEM>UTC</TIME_SYSTEM><MEAN_ELEMENT_THEORY>SGP4</MEAN_ELEMENT_THEORY></metadata><data><meanElements><EPOCH>2025-11-28T14:34:07.698720</EPOCH><MEAN_MOTION>15.34648146</MEAN_MOTION><ECCENTRICITY>.00069043</ECCENTRICITY><INCLINATION>51.8795</INCLINATION><RA_OF_ASC_NODE>88.8291</RA_OF_ASC_NODE><ARG_OF_PERICENTER>324.7976</ARG_OF_PERICENTER><MEAN_ANOMALY>35.2553</MEAN_ANOMALY></meanElements><tleParameters><EPHEMERIS_TYPE>0</EPHEMERIS_TYPE><CLASSIFICATION_TYPE>U</CLASSIFICATION_TYPE><NORAD_CAT_ID>65965</NORAD_CAT_ID><ELEMENT_SET_NO>999</ELEMENT_SET_NO><REV_AT_EPOCH>824</REV_AT_EPOCH><BSTAR>.12289078E-2</BSTAR><MEAN_MOTION_DOT>.4177E-3</MEAN_MOTION_DOT><MEAN_MOTION_DDOT>0</MEAN_MOTION_DDOT></tleParameters></data></segment></body></omm>
<omm id="CCSDS_OMM_VERS" version="2.0">
<header><CREATION_DATE/><ORIGINATOR/></header><body><segment><metadata><OBJECT_NAME>KUIPER-00141</OBJECT_NAME><OBJECT_ID>2025-228V</OBJECT_ID><CENTER_NAME>EARTH</CENTER_NAME><REF_FRAME>TEME</REF_FRAME><TIME_SYSTEM>UTC</TIME_SYSTEM><MEAN_ELEMENT_THEORY>SGP4</MEAN_ELEMENT_THEORY></metadata><data><meanElements><EPOCH>2025-11-28T12:35:51.946656</EPOCH><MEAN_MOTION>15.35734450</MEAN_MOTION><ECCENTRICITY>.00059156</ECCENTRICITY><INCLINATION>51.8788</INCLINATION><RA_OF_ASC_NODE>89.0239</RA_OF_ASC_NODE><ARG_OF_PERICENTER>311.0734</ARG_OF_PERICENTER><MEAN_ANOMALY>48.9740</MEAN_ANOMALY></meanElements><tleParameters><EPHEMERIS_TYPE>0</EPHEMERIS_TYPE><CLASSIFICATION_TYPE>U</CLASSIFICATION_TYPE><NORAD_CAT_ID>65966</NORAD_CAT_ID><ELEMENT_SET_NO>999</ELEMENT_SET_NO><REV_AT_EPOCH>823</REV_AT_EPOCH><BSTAR>.11586798E-2</BSTAR><MEAN_MOTION_DOT>.40746E-3</MEAN_MOTION_DOT><MEAN_MOTION_DDOT>0</MEAN_MOTION_DDOT></tleParameters></data></segment></body></omm>
<omm id="CCSDS_OMM_VERS" version="2.0">
<header><CREATION_DATE/><ORIGINATOR/></header><body><segment><metadata><OBJECT_NAME>KUIPER-00146</OBJECT_NAME><OBJECT_ID>2025-228W</OBJECT_ID><CENTER_NAME>EARTH</CENTER_NAME><REF_FRAME>TEME</REF_FRAME><TIME_SYSTEM>UTC</TIME_SYSTEM><MEAN_ELEMENT_THEORY>SGP4</MEAN_ELEMENT_THEORY></metadata><data><meanElements><EPOCH>2025-11-28T14:18:29.850048</EPOCH><MEAN_MOTION>15.35216807</MEAN_MOTION><ECCENTRICITY>.00066142</ECCENTRICITY><INCLINATION>51.8785</INCLINATION><RA_OF_ASC_NODE>88.7622</RA_OF_ASC_NODE><ARG_OF_PERICENTER>315.1691</ARG_OF_PERICENTER><MEAN_ANOMALY>44.8760</MEAN_ANOMALY></meanElements><tleParameters><EPHEMERIS_TYPE>0</EPHEMERIS_TYPE><CLASSIFICATION_TYPE>U</CLASSIFICATION_TYPE><NORAD_CAT_ID>65967</NORAD_CAT_ID><ELEMENT_SET_NO>999</ELEMENT_SET_NO><REV_AT_EPOCH>824</REV_AT_EPOCH><BSTAR>.1029782E-2</BSTAR><MEAN_MOTION_DOT>.35552E-3</MEAN_MOTION_DOT><MEAN_MOTION_DDOT>0</MEAN_MOTION_DDOT></tleParameters></data></segment></body></omm>
<omm id="CCSDS_OMM_VERS" version="2.0">
<header><CREATION_DATE/><ORIGINATOR/></header><body><segment><metadata><OBJECT_NAME>KUIPER-00149</OBJECT_NAME><OBJECT_ID>2025-228X</OBJECT_ID><CENTER_NAME>EARTH</CENTER_NAME><REF_FRAME>TEME</REF_FRAME><TIME_SYSTEM>UTC</TIME_SYSTEM><MEAN_ELEMENT_THEORY>SGP4</MEAN_ELEMENT_THEORY></metadata><data><meanElements><EPOCH>2025-11-28T14:04:03.203616</EPOCH><MEAN_MOTION>15.35828137</MEAN_MOTION><ECCENTRICITY>.0005636</ECCENTRICITY><INCLINATION>51.8810</INCLINATION><RA_OF_ASC_NODE>88.6909</RA_OF_ASC_NODE><ARG_OF_PERICENTER>309.3579</ARG_OF_PERICENTER><MEAN_ANOMALY>50.6907</MEAN_ANOMALY></meanElements><tleParameters><EPHEMERIS_TYPE>0</EPHEMERIS_TYPE><CLASSIFICATION_TYPE>U</CLASSIFICATION_TYPE><NORAD_CAT_ID>65968</NORAD_CAT_ID><ELEMENT_SET_NO>999</ELEMENT_SET_NO><REV_AT_EPOCH>824</REV_AT_EPOCH><BSTAR>.12618167E-2</BSTAR><MEAN_MOTION_DOT>.44563E-3</MEAN_MOTION_DOT><MEAN_MOTION_DDOT>0</MEAN_MOTION_DDOT></tleParameters></data></segment></body></omm>
<omm id="CCSDS_OMM_VERS" version="2.0">
<header><CREATION_DATE/><ORIGINATOR/></header><body><segment><metadata><OBJECT_NAME>KUIPER-00154</OBJECT_NAME><OBJECT_ID>2025-228Y</OBJECT_ID><CENTER_NAME>EARTH</CENTER_NAME><REF_FRAME>TEME</REF_FRAME><TIME_SYSTEM>UTC</TIME_SYSTEM><MEAN_ELEMENT_THEORY>SGP4</MEAN_ELEMENT_THEORY></metadata><data><meanElements><EPOCH>2025-11-28T12:33:17.430624</EPOCH><MEAN_MOTION>15.35429547</MEAN_MOTION><ECCENTRICITY>.00056989</ECCENTRICITY><INCLINATION>51.8800</INCLINATION><RA_OF_ASC_NODE>89.0164</RA_OF_ASC_NODE><ARG_OF_PERICENTER>306.6683</ARG_OF_PERICENTER><MEAN_ANOMALY>53.3779</MEAN_ANOMALY></meanElements><tleParameters><EPHEMERIS_TYPE>0</EPHEMERIS_TYPE><CLASSIFICATION_TYPE>U</CLASSIFICATION_TYPE><NORAD_CAT_ID>65969</NORAD_CAT_ID><ELEMENT_SET_NO>999</ELEMENT_SET_NO><REV_AT_EPOCH>823</REV_AT_EPOCH><BSTAR>.97750887E-3</BSTAR><MEAN_MOTION_DOT>.33947E-3</MEAN_MOTION_DOT><MEAN_MOTION_DDOT>0</MEAN_MOTION_DDOT></tleParameters></data></segment></body></omm>

</ndm>
