KUIPER-00136            
1 65962U 25228R   25332.66668981  .00031820  00000+0  90768-3 0  9998
2 65962  51.8792  88.3099 0005823 306.8051 137.7356 15.35756285  3125
KUIPER-00137            
1 65963U 25228S   25332.59932995  .00041778  00000+0  12110-2 0  9997
2 65963  51.8799  88.7832 0005767 325.8345  34.2269 15.35122758  8240
KUIPER-00138            
1 65964U 25228T   25332.60322881  .00043444  00000+0  12572-2 0  9991
2 65964  51.8783  88.7991 0006958 327.6278  32.4280 15.35150456  8247
KUIPER-00140            
1 65965U 25228U   25332.60703355  .00041770  00000+0  12289-2 0  9996
2 65965  51.8795  88.8291 0006904 324.7976  35.2553 15.34648146  8240
KUIPER-00141            
1 65966U 25228V   25332.52490679  .00040746  00000+0  11587-2 0  9992
2 65966  51.8788  89.0239 0005915 311.0734  48.9740 15.35734450  8233
KUIPER-00146            
1 65967U 25228W   25332.59617882  .00035552  00000+0  10298-2 0  9994
2 65967  51.8785  88.7622 0006614 315.1691  44.8760 15.35216807  8246
KUIPER-00149            
1 65968U 25228X   25332.58614819  .00044563  00000+0  12618-2 0  9991
2 65968  51.8810  88.6909 0005636 309.3579  50.6907 15.35828137  8249
KUIPER-00154            
1 65969U 25228Y   25332.52311841  .00033947  00000+0  97751-3 0  9991
2 65969  51.8800  89.0164 0005698 306.6683  53.3779 15.35429547  8239
